ONEWEB-0309             
1 49095U 21075W   24017.47073081  .00000054  00000+0  10594-3 0  9996
2 49095  87.9215 181.1830 0001819  76.6022 283.5313 13.17650071117460
ONEWEB-0310             
1 49096U 21075X   24017.47672645  .00000539  00000+0  14622-2 0  9991
2 49096  87.9025 166.0795 0001633  93.3994 266.7322 13.12442319119532
ONEWEB-0311             
1 49097U 21075Y   24017.47706150  .00000013  00000+0  11729-5 0  9996
2 49097  87.9215 181.1824 0001025  87.8471 272.2778 13.17649427117515
ONEWEB-0312             
1 49098U 21075Z   24017.49131559  .00000022  00000+0  22645-4 0  9992
2 49098  87.9213 181.2121 0001378  73.0990 287.0292 13.17650757117499
ONEWEB-0313             
1 49099U 21075AA  24017.46914408  .00000050  00000+0  96593-4 0  9996
2 49099  87.9215 181.2182 0001327  81.9789 278.1493 13.17651584117489
ONEWEB-0314             
1 49100U 21075AB  24017.46281332  .00000038  00000+0  63990-4 0  9993
2 49100  87.9210 181.1834 0001295  71.0536 289.0736 13.17648141117457
ONEWEB-0315             
1 49101U 21075AC  24017.45133259  .00000021  00000+0  22909-4 0  9994
2 49101  87.9015 166.0856 0001457 102.6782 257.4510 13.12442535119513
ONEWEB-0316             
1 49102U 21075AD  24017.39866894  .00000033  00000+0  49905-4 0  9994
2 49102  87.9242 150.9190 0001273 104.4175 255.7099 13.18685473120994
